{
    "satellites": [
        {
            "name": "starlink338",
            "title": "Starlink-338 (G6-99)",
            "tle": [
                "1 67174C 25303M   26017.10812500 -.00014515  00000+0 -34605-3 0   170",
                "2 67174  42.9987 245.2908 0001469 265.8002 277.1623 15.40737922    18"
            ],
            "stdMag": 5,
            "noradId": "67174",
            "tleUrl": "http://celestrak.org/NORAD/elements/supplemental/sup-gp.php?FILE=starlink&FORMAT=tle",
            "launchDate": "2025-12-17T13:42:10.000Z",
            "active": true,
            "batch": [
                {
                    "noradId": "67174",
                    "tle": [
                        "1 67174C 25303M   26017.10812500 -.00014515  00000+0 -34605-3 0   170",
                        "2 67174  42.9987 245.2908 0001469 265.8002 277.1623 15.40737922    18"
                    ]
                },
                {
                    "noradId": "67173",
                    "tle": [
                        "1 67173C 25303L   26017.10534722 -.00028685  00000+0 -68443-3 0   176",
                        "2 67173  42.9987 245.3369 0001450 270.2017 244.9958 15.40725918    10"
                    ]
                },
                {
                    "noradId": "67167",
                    "tle": [
                        "1 67167C 25303E   26017.10812500 -.00024560  00000+0 -58599-3 0   171",
                        "2 67167  42.9985 245.4727 0001516 266.9961 201.4206 15.40723220    11"
                    ]
                },
                {
                    "noradId": "67166",
                    "tle": [
                        "1 67166C 25303D   26017.10812500 -.00016528  00000+0 -39436-3 0   174",
                        "2 67166  42.9986 245.5642 0001514 267.1116 163.9892 15.40714142    17"
                    ]
                },
                {
                    "noradId": "67165",
                    "tle": [
                        "1 67165C 25303C   26017.10187500 -.00015600  00000+0 -37223-3 0   170",
                        "2 67165  42.9985 245.5383 0001338 263.1855 158.0902 15.40713698    19"
                    ]
                },
                {
                    "noradId": "67164",
                    "tle": [
                        "1 67164C 25303B   26017.10881944 -.00012327  00000+0 -29413-3 0   177",
                        "2 67164  42.9986 245.5893 0001537 259.8195 162.7003 15.40709828    19"
                    ]
                }
            ]
        }
    ],
    "config": {}
}